{
  "type": "FeatureCollection",
  "features": [
    {
      "type": "Feature",
      "properties": {
        "norad_id": 66843,
        "name": "STARLINK-35997",
        "group": "last-30-days",
        "lat": 69.82217819773692,
        "lon": -98.33749847275145,
        "alt_km": 405.3572230748323,
        "timestamp": "2025-12-19T16:54:42.968642+00:00",
        "meta_object_name": "STARLINK-35997",
        "meta_object_id": "2025-280Y",
        "meta_epoch": "2025-12-19T06:00:02.000160",
        "meta_mean_motion": 15.54550823,
        "meta_eccentricity": 0.00035405,
        "meta_inclination": 69.9995,
        "meta_ra_of_asc_node": 180.5317,
        "meta_arg_of_pericenter": 272.474,
        "meta_mean_anomaly": 153.3644,
        "meta_ephemeris_type": 0,
        "meta_classification_type": "U",
        "meta_norad_cat_id": 66843,
        "meta_element_set_no": 999,
        "meta_rev_at_epoch": 394,
        "meta_bstar": -0.042694556,
        "meta_mean_motion_dot": -0.02462969,
        "meta_mean_motion_ddot": 0,
        "tle_line1": "1 66843U 25280Y   25353.25002315 -.02462969  00000+0 -42695-1 0  9996",
        "tle_line2": "2 66843  69.9995 180.5317 0003540 272.4740 153.3644 15.54550823  3949"
      },
      "geometry": {
        "type": "Point",
        "coordinates": [
          -98.33749847275145,
          69.82217819773692
        ]
      }
    },
    {
      "type": "Feature",
      "properties": {
        "norad_id": 66844,
        "name": "STARLINK-36073",
        "group": "last-30-days",
        "lat": 69.49840170636665,
        "lon": -103.77386908242156,
        "alt_km": 405.387383306881,
        "timestamp": "2025-12-19T16:54:42.968653+00:00",
        "meta_object_name": "STARLINK-36073",
        "meta_object_id": "2025-280Z",
        "meta_epoch": "2025-12-19T06:00:02.000160",
        "meta_mean_motion": 15.54543971,
        "meta_eccentricity": 0.00035784,
        "meta_inclination": 69.9995,
        "meta_ra_of_asc_node": 180.5347,
        "meta_arg_of_pericenter": 273.5876,
        "meta_mean_anomaly": 150.3367,
        "meta_ephemeris_type": 0,
        "meta_classification_type": "U",
        "meta_norad_cat_id": 66844,
        "meta_element_set_no": 999,
        "meta_rev_at_epoch": 394,
        "meta_bstar": -0.04250595,
        "meta_mean_motion_dot": -0.02453025,
        "meta_mean_motion_ddot": 0,
        "tle_line1": "1 66844U 25280Z   25353.25002315 -.02453025  00000+0 -42506-1 0  9991",
        "tle_line2": "2 66844  69.9995 180.5347 0003578 273.5876 150.3367 15.54543971  3941"
      },
      "geometry": {
        "type": "Point",
        "coordinates": [
          -103.77386908242156,
          69.49840170636665
        ]
      }
    },
    {
      "type": "Feature",
      "properties": {
        "norad_id": 66845,
        "name": "STARLINK-36068",
        "group": "last-30-days",
        "lat": 69.75214440428931,
        "lon": -81.63014747036881,
        "alt_km": 405.4024094068227,
        "timestamp": "2025-12-19T16:54:42.968663+00:00",
        "meta_object_name": "STARLINK-36068",
        "meta_object_id": "2025-280AA",
        "meta_epoch": "2025-12-19T06:00:02.000160",
        "meta_mean_motion": 15.54540702,
        "meta_eccentricity": 0.00036102,
        "meta_inclination": 69.9994,
        "meta_ra_of_asc_node": 180.5248,
        "meta_arg_of_pericenter": 274.7782,
        "meta_mean_anomaly": 156.8113,
        "meta_ephemeris_type": 0,
        "meta_classification_type": "U",
        "meta_norad_cat_id": 66845,
        "meta_element_set_no": 999,
        "meta_rev_at_epoch": 394,
        "meta_bstar": -0.04240723,
        "meta_mean_motion_dot": -0.02447854,
        "meta_mean_motion_ddot": 0,
        "tle_line1": "1 66845U 25280AA  25353.25002315 -.02447854  00000+0 -42407-1 0  9995",
        "tle_line2": "2 66845  69.9994 180.5248 0003610 274.7782 156.8113 15.54540702  3946"
      },
      "geometry": {
        "type": "Point",
        "coordinates": [
          -81.63014747036881,
          69.75214440428931
        ]
      }
    },
    {
      "type": "Feature",
      "properties": {
        "norad_id": 66846,
        "name": "STARLINK-36055",
        "group": "last-30-days",
        "lat": 69.97422673175753,
        "lon": -92.77243789773851,
        "alt_km": 405.4027129646656,
        "timestamp": "2025-12-19T16:54:42.968676+00:00",
        "meta_object_name": "STARLINK-36055",
        "meta_object_id": "2025-280AB",
        "meta_epoch": "2025-12-19T06:00:02.000160",
        "meta_mean_motion": 15.5453566,
        "meta_eccentricity": 0.00036531,
        "meta_inclination": 69.9993,
        "meta_ra_of_asc_node": 180.5296,
        "meta_arg_of_pericenter": 273.6445,
        "meta_mean_anomaly": 154.1135,
        "meta_ephemeris_type": 0,
        "meta_classification_type": "U",
        "meta_norad_cat_id": 66846,
        "meta_element_set_no": 999,
        "meta_rev_at_epoch": 394,
        "meta_bstar": -0.042272555,
        "meta_mean_motion_dot": -0.0244075,
        "meta_mean_motion_ddot": 0,
        "tle_line1": "1 66846U 25280AB  25353.25002315 -.02440750  00000+0 -42273-1 0  9995",
        "tle_line2": "2 66846  69.9993 180.5296 0003653 273.6445 154.1135 15.54535660  3942"
      },
      "geometry": {
        "type": "Point",
        "coordinates": [
          -92.77243789773851,
          69.97422673175753
        ]
      }
    },
    {
      "type": "Feature",
      "properties": {
        "norad_id": 66847,
        "name": "STARLINK-36061",
        "group": "last-30-days",
        "lat": 69.95064731185546,
        "lon": -87.16721091038681,
        "alt_km": 405.3876966906337,
        "timestamp": "2025-12-19T16:54:42.968686+00:00",
        "meta_object_name": "STARLINK-36061",
        "meta_object_id": "2025-280AC",
        "meta_epoch": "2025-12-19T06:00:02.000160",
        "meta_mean_motion": 15.54540482,
        "meta_eccentricity": 0.00036112,
        "meta_inclination": 69.9993,
        "meta_ra_of_asc_node": 180.5274,
        "meta_arg_of_pericenter": 274.6588,
        "meta_mean_anomaly": 155.0165,
        "meta_ephemeris_type": 0,
        "meta_classification_type": "U",
        "meta_norad_cat_id": 66847,
        "meta_element_set_no": 999,
        "meta_rev_at_epoch": 389,
        "meta_bstar": -0.042426002,
        "meta_mean_motion_dot": -0.0244878,
        "meta_mean_motion_ddot": 0,
        "tle_line1": "1 66847U 25280AC  25353.25002315 -.02448780  00000+0 -42426-1 0  9997",
        "tle_line2": "2 66847  69.9993 180.5274 0003611 274.6588 155.0165 15.54540482  3897"
      },
      "geometry": {
        "type": "Point",
        "coordinates": [
          -87.16721091038681,
          69.95064731185546
        ]
      }
    },
    {
      "type": "Feature",
      "properties": {
        "norad_id": 66848,
        "name": "STARLINK-36091",
        "group": "last-30-days",
        "lat": -42.97960071787615,
        "lon": -10.074632416845326,
        "alt_km": 346.770835582377,
        "timestamp": "2025-12-19T16:54:42.968696+00:00",
        "meta_object_name": "STARLINK-36091",
        "meta_object_id": "2025-281A",
        "meta_epoch": "2025-12-19T06:00:02.000160",
        "meta_mean_motion": 15.75057326,
        "meta_eccentricity": 0.00016456,
        "meta_inclination": 43.0007,
        "meta_ra_of_asc_node": 82.4571,
        "meta_arg_of_pericenter": 264.3568,
        "meta_mean_anomaly": 304.7644,
        "meta_ephemeris_type": 0,
        "meta_classification_type": "U",
        "meta_norad_cat_id": 66848,
        "meta_element_set_no": 999,
        "meta_rev_at_epoch": 244,
        "meta_bstar": -0.00015486783,
        "meta_mean_motion_dot": -0.00024218,
        "meta_mean_motion_ddot": 0,
        "tle_line1": "1 66848U 25281A   25353.25002315 -.00024218  00000+0 -15487-3 0  9992",
        "tle_line2": "2 66848  43.0007  82.4571 0001645 264.3568 304.7644 15.75057326  2444"
      },
      "geometry": {
        "type": "Point",
        "coordinates": [
          -10.074632416845326,
          -42.97960071787615
        ]
      }
    },
    {
      "type": "Feature",
      "properties": {
        "norad_id": 66849,
        "name": "STARLINK-36102",
        "group": "last-30-days",
        "lat": -42.9446341938574,
        "lon": -7.46419341415615,
        "alt_km": 346.8167912739282,
        "timestamp": "2025-12-19T16:54:42.968708+00:00",
        "meta_object_name": "STARLINK-36102",
        "meta_object_id": "2025-281B",
        "meta_epoch": "2025-12-19T06:00:02.000160",
        "meta_mean_motion": 15.75059321,
        "meta_eccentricity": 0.00015709,
        "meta_inclination": 43.0007,
        "meta_ra_of_asc_node": 82.4518,
        "meta_arg_of_pericenter": 264.6835,
        "meta_mean_anomaly": 306.3518,
        "meta_ephemeris_type": 0,
        "meta_classification_type": "U",
        "meta_norad_cat_id": 66849,
        "meta_element_set_no": 999,
        "meta_rev_at_epoch": 244,
        "meta_bstar": -0.00015709181,
        "meta_mean_motion_dot": -0.00024559,
        "meta_mean_motion_ddot": 0,
        "tle_line1": "1 66849U 25281B   25353.25002315 -.00024559  00000+0 -15709-3 0  9998",
        "tle_line2": "2 66849  43.0007  82.4518 0001570 264.6835 306.3518 15.75059321  2448"
      },
      "geometry": {
        "type": "Point",
        "coordinates": [
          -7.46419341415615,
          -42.9446341938574
        ]
      }
    }
  ]
}